{
  "type": "FeatureCollection",
  "features": [
    {
      "type": "Feature",
      "properties": {
        "norad_id": 38709,
        "name": "EXACTVIEW-1 (ADS-1B)",
        "group": "resource",
        "lat": 24.490169082856898,
        "lon": -84.58398647384831,
        "alt_km": 814.8712684442571,
        "timestamp": "2025-12-08T23:34:03.626431+00:00",
        "meta_object_name": "EXACTVIEW-1 (ADS-1B)",
        "meta_object_id": "2012-039C",
        "meta_epoch": "2025-12-08T14:24:58.472064",
        "meta_mean_motion": 14.24905658,
        "meta_eccentricity": 0.0010891,
        "meta_inclination": 98.9636,
        "meta_ra_of_asc_node": 90.9039,
        "meta_arg_of_pericenter": 6.2058,
        "meta_mean_anomaly": 353.9253,
        "meta_ephemeris_type": 0,
        "meta_classification_type": "U",
        "meta_norad_cat_id": 38709,
        "meta_element_set_no": 999,
        "meta_rev_at_epoch": 69556,
        "meta_bstar": 0.00017405758,
        "meta_mean_motion_dot": 3.6e-06,
        "meta_mean_motion_ddot": 0,
        "tle_line1": "1 38709U 12039C   25342.60067676  .00000360  00000+0  17406-3 0  9995",
        "tle_line2": "2 38709  98.9636  90.9039 0010891   6.2058 353.9253 14.24905658695565"
      },
      "geometry": {
        "type": "Point",
        "coordinates": [
          -84.58398647384831,
          24.490169082856898
        ]
      }
    },
    {
      "type": "Feature",
      "properties": {
        "norad_id": 38755,
        "name": "SPOT 6",
        "group": "resource",
        "lat": 81.6858949969066,
        "lon": -31.156420109887794,
        "alt_km": 689.4925046999488,
        "timestamp": "2025-12-08T23:34:03.626442+00:00",
        "meta_object_name": "SPOT 6",
        "meta_object_id": "2012-047A",
        "meta_epoch": "2025-12-08T14:55:54.948000",
        "meta_mean_motion": 14.5859801,
        "meta_eccentricity": 0.00010876,
        "meta_inclination": 98.1579,
        "meta_ra_of_asc_node": 47.4825,
        "meta_arg_of_pericenter": 102.6854,
        "meta_mean_anomaly": 257.4467,
        "meta_ephemeris_type": 0,
        "meta_classification_type": "U",
        "meta_norad_cat_id": 38755,
        "meta_element_set_no": 999,
        "meta_rev_at_epoch": 70527,
        "meta_bstar": 0.00019061159,
        "meta_mean_motion_dot": 8.42e-06,
        "meta_mean_motion_ddot": 0,
        "tle_line1": "1 38755U 12047A   25342.62216375  .00000842  00000+0  19061-3 0  9993",
        "tle_line2": "2 38755  98.1579  47.4825 0001087 102.6854 257.4467 14.58598010705278"
      },
      "geometry": {
        "type": "Point",
        "coordinates": [
          -31.156420109887794,
          81.6858949969066
        ]
      }
    },
    {
      "type": "Feature",
      "properties": {
        "norad_id": 39019,
        "name": "PLEIADES 1B",
        "group": "resource",
        "lat": -12.347434527776832,
        "lon": 57.497417661285425,
        "alt_km": 702.4374056044244,
        "timestamp": "2025-12-08T23:34:03.626471+00:00",
        "meta_object_name": "PLEIADES 1B",
        "meta_object_id": "2012-068A",
        "meta_epoch": "2025-12-08T15:23:32.986464",
        "meta_mean_motion": 14.58547577,
        "meta_eccentricity": 0.00012223,
        "meta_inclination": 98.18,
        "meta_ra_of_asc_node": 55.3578,
        "meta_arg_of_pericenter": 87.3633,
        "meta_mean_anomaly": 272.7707,
        "meta_ephemeris_type": 0,
        "meta_classification_type": "U",
        "meta_norad_cat_id": 39019,
        "meta_element_set_no": 999,
        "meta_rev_at_epoch": 69307,
        "meta_bstar": 0.00019937589,
        "meta_mean_motion_dot": 8.81e-06,
        "meta_mean_motion_ddot": 0,
        "tle_line1": "1 39019U 12068A   25342.64135401  .00000881  00000+0  19938-3 0  9998",
        "tle_line2": "2 39019  98.1800  55.3578 0001222  87.3633 272.7707 14.58547577693070"
      },
      "geometry": {
        "type": "Point",
        "coordinates": [
          57.497417661285425,
          -12.347434527776832
        ]
      }
    },
    {
      "type": "Feature",
      "properties": {
        "norad_id": 39030,
        "name": "GOKTURK 2",
        "group": "resource",
        "lat": -22.848690879216406,
        "lon": -171.91575770407292,
        "alt_km": 650.0881848314166,
        "timestamp": "2025-12-08T23:34:03.626484+00:00",
        "meta_object_name": "GOKTURK 2",
        "meta_object_id": "2012-073A",
        "meta_epoch": "2025-12-08T13:54:18.804384",
        "meta_mean_motion": 14.75283203,
        "meta_eccentricity": 9.012e-05,
        "meta_inclination": 97.6903,
        "meta_ra_of_asc_node": 184.4376,
        "meta_arg_of_pericenter": 105.7302,
        "meta_mean_anomaly": 254.4008,
        "meta_ephemeris_type": 0,
        "meta_classification_type": "U",
        "meta_norad_cat_id": 39030,
        "meta_element_set_no": 999,
        "meta_rev_at_epoch": 69640,
        "meta_bstar": 0.00019222622,
        "meta_mean_motion_dot": 1.254e-05,
        "meta_mean_motion_ddot": 0,
        "tle_line1": "1 39030U 12073A   25342.57938431  .00001254  00000+0  19223-3 0  9995",
        "tle_line2": "2 39030  97.6903 184.4376 0000901 105.7302 254.4008 14.75283203696405"
      },
      "geometry": {
        "type": "Point",
        "coordinates": [
          -171.91575770407292,
          -22.848690879216406
        ]
      }
    },
    {
      "type": "Feature",
      "properties": {
        "norad_id": 39084,
        "name": "LANDSAT 8",
        "group": "resource",
        "lat": 2.7214458650493794,
        "lon": -128.4960721801978,
        "alt_km": 705.1639886136463,
        "timestamp": "2025-12-08T23:34:03.626496+00:00",
        "meta_object_name": "LANDSAT 8",
        "meta_object_id": "2013-008A",
        "meta_epoch": "2025-12-08T14:31:01.475616",
        "meta_mean_motion": 14.57108482,
        "meta_eccentricity": 0.00011254,
        "meta_inclination": 98.2077,
        "meta_ra_of_asc_node": 50.7393,
        "meta_arg_of_pericenter": 86.7381,
        "meta_mean_anomaly": 273.3946,
        "meta_ephemeris_type": 0,
        "meta_classification_type": "U",
        "meta_norad_cat_id": 39084,
        "meta_element_set_no": 999,
        "meta_rev_at_epoch": 67014,
        "meta_bstar": 0.00020349295,
        "meta_mean_motion_dot": 8.72e-06,
        "meta_mean_motion_ddot": 0,
        "tle_line1": "1 39084U 13008A   25342.60487819  .00000872  00000+0  20349-3 0  9992",
        "tle_line2": "2 39084  98.2077  50.7393 0001125  86.7381 273.3946 14.57108482670140"
      },
      "geometry": {
        "type": "Point",
        "coordinates": [
          -128.4960721801978,
          2.7214458650493794
        ]
      }
    },
    {
      "type": "Feature",
      "properties": {
        "norad_id": 39086,
        "name": "SARAL",
        "group": "resource",
        "lat": 47.48320361296509,
        "lon": -3.5944981605456263,
        "alt_km": 776.3791426289454,
        "timestamp": "2025-12-08T23:34:03.626506+00:00",
        "meta_object_name": "SARAL",
        "meta_object_id": "2013-009A",
        "meta_epoch": "2025-12-08T14:34:29.295264",
        "meta_mean_motion": 14.32755109,
        "meta_eccentricity": 0.00027809,
        "meta_inclination": 98.5504,
        "meta_ra_of_asc_node": 166.5916,
        "meta_arg_of_pericenter": 116.5669,
        "meta_mean_anomaly": 243.58,
        "meta_ephemeris_type": 0,
        "meta_classification_type": "U",
        "meta_norad_cat_id": 39086,
        "meta_element_set_no": 999,
        "meta_rev_at_epoch": 66831,
        "meta_bstar": 0.00011871257,
        "meta_mean_motion_dot": 2.8e-06,
        "meta_mean_motion_ddot": 0,
        "tle_line1": "1 39086U 13009A   25342.60728351  .00000280  00000+0  11871-3 0  9997",
        "tle_line2": "2 39086  98.5504 166.5916 0002780 116.5669 243.5800 14.32755109668317"
      },
      "geometry": {
        "type": "Point",
        "coordinates": [
          -3.5944981605456263,
          47.48320361296509
        ]
      }
    },
    {
      "type": "Feature",
      "properties": {
        "norad_id": 39150,
        "name": "GAOFEN-1",
        "group": "resource",
        "lat": 37.528467374030804,
        "lon": 47.55880467052026,
        "alt_km": 643.2703764634007,
        "timestamp": "2025-12-08T23:34:03.626517+00:00",
        "meta_object_name": "GAOFEN-1",
        "meta_object_id": "2013-018A",
        "meta_epoch": "2025-12-08T15:15:49.555872",
        "meta_mean_motion": 14.76524077,
        "meta_eccentricity": 0.00180037,
        "meta_inclination": 97.9332,
        "meta_ra_of_asc_node": 53.3677,
        "meta_arg_of_pericenter": 155.8585,
        "meta_mean_anomaly": 204.3473,
        "meta_ephemeris_type": 0,
        "meta_classification_type": "U",
        "meta_norad_cat_id": 39150,
        "meta_element_set_no": 999,
        "meta_rev_at_epoch": 68012,
        "meta_bstar": 0.00023849338,
        "meta_mean_motion_dot": 1.615e-05,
        "meta_mean_motion_ddot": 0,
        "tle_line1": "1 39150U 13018A   25342.63599023  .00001615  00000+0  23849-3 0  9995",
        "tle_line2": "2 39150  97.9332  53.3677 0018003 155.8585 204.3473 14.76524077680126"
      },
      "geometry": {
        "type": "Point",
        "coordinates": [
          47.55880467052026,
          37.528467374030804
        ]
      }
    }
  ]
}